satname,norad_id,inclination_deg,eccentricity,mean_motion_rev_per_day,perigee_km,apogee_km,l1,l2
STARLINK-1008,44714,53.1567,0.0002166,15.32117655,468.01207308657195,470.97846738603766,1 44714U 19074B   26082.41068336  .00026656  00000+0  85644-3 0  9994,2 44714  53.1567 114.8887 0002166  65.8912 294.2316 15.32117655350979
STARLINK-1012,44718,53.1592,0.0002573,15.31312184,470.1337849504953,473.65881208591236,1 44718U 19074F   26082.46326510  .00031688  00000+0  10410-2 0  9993,2 44718  53.1592 114.7778 0002573  56.3022 303.8225 15.31312184350977
STARLINK-1017,44723,53.0509,0.0003044,15.25271005,487.8811260606035,492.06243068487765,1 44723U 19074L   26082.30791697  .00024888  00000+0  98646-3 0  9996,2 44723  53.0509 108.5729 0003044  64.8775 295.2537 15.25271005351048
STARLINK-1019,44724,53.0409,2.33e-05,15.85423517,314.97652811509033,315.2884344729182,1 44724U 19074M   26082.58335647  .00126478  00000+0  51251-3 0  9995,2 44724  53.0409  66.6398 0000233  42.6218  70.9571 15.85423517  5996
STARLINK-1020,44725,53.159,0.0001713,15.30639394,472.729677467426,475.0771865194274,1 44725U 19074N   26082.44921512  .00032128  00000+0  10775-2 0  9996,2 44725  53.1590 139.9272 0001713  70.6958 289.4228 15.30639394350610
STARLINK-1031,44736,53.0353,0.0003925,15.98812444,275.10010211361896,280.32494398921426,1 44736U 19074Z   26082.58335647  .00280760  43621-4  57766-3 0  9991,2 44736  53.0353  48.8142 0003925  69.8830 101.8987 15.98812444  6012
STARLINK-1036,44741,53.0485,0.000516,15.58495526,388.5171670345662,395.5039593197653,1 44741U 19074AE  26082.34644131  .00068429  00000+0  87874-3 0  9990,2 44741  53.0485 122.2946 0005160 356.5898   3.5078 15.58495526350853
STARLINK-1039,44744,53.0555,0.0001211,15.22824489,496.49323210811235,498.15846921054253,1 44744U 19074AH  26082.46780200  .00026556  00000+0  11307-2 0  9996,2 44744  53.0555 151.7047 0001211 262.6556  97.4303 15.22824489350458
STARLINK-1042,44747,53.0454,0.000175,15.50516208,414.0290215767909,416.4066957773284,1 44747U 19074AL  26082.06364522  .00036247  00000+0  62937-3 0  9994,2 44747  53.0454  30.5928 0001750 129.2998 230.8165 15.50516208352142
STARLINK-1043,44748,53.0503,0.000241,15.54566045,401.7800225509545,405.04873031439547,1 44748U 19074AM  26082.41954613  .00031948  00000+0  48077-3 0  9992,2 44748  53.0503 128.2069 0002410  80.0031 280.1251 15.54566045350785
STARLINK-1046,44751,53.0516,0.0002759,15.45056866,429.3322886715059,433.0896868911641,1 44751U 19074AQ  26082.33005085  .00026710  00000+0  56339-3 0  9998,2 44751  53.0516 145.9602 0002759 244.8276 115.2444 15.45056866350528
STARLINK-1047,44752,53.0702,0.0001514,15.32865804,466.2306027073846,468.303391037638,1 44752U 19074AR  26082.32004169  .00011264  00000+0  36090-3 0  9990,2 44752  53.0702  82.3160 0001514 287.0268  73.0567 15.32865804351431
STARLINK-1048,44753,53.0509,0.0002302,15.55807504,398.2460476695751,401.36661277881103,1 44753U 19074AS  26082.47071502  .00059962  00000+0  85319-3 0  9997,2 44753  53.0509 102.2439 0002302  41.2694 318.8490 15.55807504351148
STARLINK-1053,44758,53.0248,0.0005352,16.02896593,262.8455767685118,269.95789102927756,1 44758U 19074AX  26082.50918184  .00525104  13686-3  84819-3 0  9990,2 44758  53.0248  12.3135 0005352 139.6932 220.4496 16.02896593352416
STARLINK-1063,44768,53.1584,0.0001892,15.31181783,470.9891089206312,473.58130868444096,1 44768U 19074BH  26082.07315917  .00176385  00000+0  56530-2 0  9991,2 44768  53.1584 157.1942 0001892  46.4275 313.6883 15.31181783350361
STARLINK-1067,44771,53.0488,0.0005963,15.59568528,384.8697243203642,392.94009850391376,1 44771U 19074BL  26082.41677174  .00064279  00000+0  79327-3 0  9997,2 44771  53.0488 137.4515 0005963  15.6838 344.4358 15.59568528350657
STARLINK-1068,44772,53.046,0.0004465,15.65761628,368.0357047180678,374.0627280092813,1 44772U 19074BM  26082.54488565  .00042461  00000+0  41479-3 0  9992,2 44772  53.0460 111.8959 0004465 358.1960   1.9037 15.65761628351016
STARLINK-1114,44927,53.048,0.0006307,15.52532686,405.05344529694685,413.6151615991166,1 44927U 20001P   26082.52856514  .00047274  00000+0  76013-3 0  9996,2 44927  53.0480 262.8074 0006307 172.6438 187.4665 15.52532686342249
STARLINK-1123,44930,53.1489,0.0001049,15.29326092,477.10645317358467,478.54483413622256,1 44930U 20001S   26082.56214467  .00010496  00000+0  37590-3 0  9992,2 44930  53.1489 280.7992 0001049  67.3748 292.7363 15.29326092341995
STARLINK-1094,44941,53.1598,0.00018,15.30476055,473.1574878144165,475.6243978738412,1 44941U 20001AD  26082.46453215  .00018527  00000+0  63070-3 0  9994,2 44941  53.1598 255.5729 0001800  79.7415 280.3789 15.30476055342341
STARLINK-1122,44949,53.1584,0.0001205,15.30181887,474.44331666458766,476.0949875472443,1 44949U 20001AM  26082.49123585 -.00001764  00000+0 -47479-4 0  9992,2 44949  53.1584 255.5012 0001205  72.1522 287.9610 15.30181887342346
STARLINK-1080,44961,53.051,0.0004231,15.49425056,415.5312574126383,421.2824928397695,1 44961U 20001AZ  26082.10633163  .00076063  00000+0  13564-2 0  9990,2 44961  53.0510 223.9726 0004231 167.6468 192.4644 15.49425056342751
STARLINK-1090,44968,53.1534,0.0001046,15.29594611,476.30619823983943,477.7402977637212,1 44968U 20001BG  26082.46388541  .00034829  00000+0  12048-2 0  9993,2 44968  53.1534 242.5241 0001046  91.2143 268.8977 15.29594611342521
STARLINK-1132,45044,53.1558,0.000371,15.44862173,429.25659926253775,434.3095599616099,1 45044U 20006A   26082.57329835  .00039039  00000+0  82347-3 0  9995,2 45044  53.1558 188.0858 0003710 278.2616  81.7970 15.44862173339072
STARLINK-1131,45047,53.1601,0.000129,15.30195384,474.3447678030252,476.1129361928406,1 45047U 20006D   26081.85956443 -.00000267  00000+0  30976-5 0  9994,2 45047  53.1601 219.8041 0001290  89.5440 270.5708 15.30195384338568
STARLINK-1134,45048,53.0308,0.0005875,15.45522784,425.8427199383068,433.84209574251963,1 45048U 20006E   26082.53614133  .00020465  00000+0  42712-3 0  9998,2 45048  53.0308 172.3631 0005875 237.0945 122.9496 15.45522784339281
STARLINK-1156,45054,53.1605,0.000145,15.30196378,474.2321464615952,476.21962169797916,1 45054U 20006L   26082.08184803  .00001977  00000+0  78857-4 0  9998,2 45054  53.1605 218.7853 0001450  76.0253 284.0909 15.30196378338590
STARLINK-1159,45057,53.0444,0.0002179,15.86476172,310.71360045352503,313.62923686237536,1 45057U 20006P   26082.58335647  .00187908  00000+0  71709-3 0  9997,2 45057  53.0444 164.6247 0002179  10.0798  45.2812 15.86476172  5999
STARLINK-1166,45060,53.0508,0.0001734,15.47464574,422.966506269051,425.32553802113034,1 45060U 20006S   26082.53651168  .00041052  00000+0  79146-3 0  9997,2 45060  53.0508 206.6018 0001734 233.9564 126.1282 15.47464574338809
STARLINK-1169,45061,53.1601,0.0001388,15.30540279,473.24814163298834,475.15035017485206,1 45061U 20006T   26082.11376666  .00011506  00000+0  39586-3 0  9994,2 45061  53.1601 218.6318 0001388  61.4410 298.6731 15.30540279338601
STARLINK-1171,45062,53.0442,0.0002812,15.65104123,371.0409171429992,374.8377224652577,1 45062U 20006U   26081.74319149  .00063526  00000+0  63282-3 0  9995,2 45062  53.0442 185.4491 0002812  17.6071 342.5040 15.65104123339038
STARLINK-1133,45064,53.1618,0.0001142,15.30189858,474.46269550590296,476.0280080350467,1 45064U 20006W   26081.72840147 -.00000012  00000+0  11712-4 0  9996,2 45064  53.1618 197.2329 0001142  83.1671 276.9459 15.30189858338871
STARLINK-1167,45071,53.1605,0.0002427,15.30221156,473.48860892794164,476.81519536104224,1 45071U 20006AD  26082.02174865  .00031610  00000+0  10741-2 0  9991,2 45071  53.1605 195.9691 0002427  47.5571 312.5635 15.30221156338918
STARLINK-1168,45072,53.1594,0.0001287,15.29349683,476.8727856716396,478.63749230821577,1 45072U 20006AE  26082.03467700 -.00002065  00000+0 -59256-4 0  9996,2 45072  53.1594 196.0043 0001287  95.3320 264.7828 15.29349683338911
STARLINK-1172,45074,53.1596,0.0001467,15.31119864,471.4649124380376,473.4748805014615,1 45074U 20006AG  26081.70173275  .00016523  00000+0  55285-3 0  9991,2 45074  53.1596 197.3393 0001467  55.6871 304.4269 15.31119864338861
STARLINK-1153,45080,53.1595,0.0002161,15.30221531,473.66978699831816,476.63177797791104,1 45080U 20006AN  26082.00615115  .00021166  00000+0  72423-3 0  9998,2 45080  53.1595 195.9611 0002161  26.7526 333.3586 15.30221531338915
STARLINK-1151,45081,53.0518,0.0003293,15.67100047,364.98455927485156,369.4270420433659,1 45081U 20006AP  26082.22754497  .00070393  00000+0  64619-3 0  9994,2 45081  53.0518 173.2334 0003293  25.1456 334.9719 15.67100047339243
STARLINK-1185,45087,53.1604,0.0001797,15.33881562,463.01500522296465,465.47415716324485,1 45087U 20006AV  26082.53408659  .00029478  00000+0  89468-3 0  9997,2 45087  53.1604 177.8186 0001797  30.9865 329.1243 15.33881562339212
STARLINK-1183,45088,53.1591,9.21e-05,15.30189726,474.61454935216443,475.8769424539596,1 45088U 20006AW  26082.53422690  .00002701  00000+0  10330-3 0  9991,2 45088  53.1591 178.2742 0000921  93.3039 266.8067 15.30189726339205
STARLINK-1152,45096,53.0379,0.0002758,15.40171045,443.7220725395182,447.48604810839424,1 45096U 20006BE  26082.42615301  .00041021  00000+0  10114-2 0  9998,2 45096  53.0379 141.5937 0002758 299.0922  60.9805 15.40171045339706
STARLINK-1184,45098,53.0533,0.0003555,15.10919103,530.9386414191904,535.8527411626983,1 45098U 20006BG  26082.56011241  .00014286  00000+0  86329-3 0  9993,2 45098  53.0533 182.7431 0003555 168.3302 191.7772 15.10919103339137
STARLINK-1193,45100,53.0507,0.0004879,15.5824549,389.4312605197347,396.0382771917839,1 45100U 20006BJ  26081.61529872  .00045297  00000+0  59112-3 0  9992,2 45100  53.0507 167.7396 0004879  19.4993 340.6204 15.58245490339269
STARLINK-1143,45179,53.0455,0.0005773,15.66243663,365.76886400696367,373.55987546846245,1 45179U 20012B   26082.49142274  .00058381  00000+0  55616-3 0  9992,2 45179  53.0455 262.2118 0005773 158.8746 201.2508 15.66243663338085
